IRIDIUM 33 DEB          
1 38017U 97051YD  17345.57726414  .00000486  00000-0  26196-3 0  9992
2 38017  86.3521 283.6830 0184878 315.5760  43.0712 14.02712775201241
